[Satellite]
VERSION=1.1
NAME=MOLNIYA 1-49
NICKNAME=MOLNIYA 1-49
TLE1=1 12156U 81009A   18020.53667981 -.00001124  00000-0  00000-0 0  9998
TLE2=2 12156  63.9126  44.9216 7147517 247.5991 349.3422  2.05708615188388
